[{"OBJECT_NAME":"STARLINK-30294","OBJECT_ID":"2023-122V","EPOCH":"2026-03-09T22:00:01.999584","MEAN_MOTION":15.18636103,"ECCENTRICITY":0.0001234,"INCLINATION":43.0013,"RA_OF_ASC_NODE":79.6863,"ARG_OF_PERICENTER":285.8552,"MEAN_ANOMALY":215.8624,"EPHEMERIS_TYPE":0,"CLASSIFICATION_TYPE":"U","NORAD_CAT_ID":57651,"ELEMENT_SET_NO":999,"REV_AT_EPOCH":567,"BSTAR":0.056254533,"MEAN_MOTION_DOT":0.01284505,"MEAN_MOTION_DDOT":0},{"OBJECT_NAME":"CZ-2C R\/B","OBJECT_ID":"2025-040C","EPOCH":"2026-03-09T20:48:45.699840","MEAN_MOTION":15.35891971,"ECCENTRICITY":0.00146139,"INCLINATION":97.1638,"RA_OF_ASC_NODE":181.5862,"ARG_OF_PERICENTER":64.9841,"MEAN_ANOMALY":295.2919,"EPHEMERIS_TYPE":0,"CLASSIFICATION_TYPE":"U","NORAD_CAT_ID":63127,"ELEMENT_SET_NO":999,"REV_AT_EPOCH":5741,"BSTAR":0.00046093655,"MEAN_MOTION_DOT":0.00016093,"MEAN_MOTION_DDOT":0}]
